{"fetched_at":"2026-07-08T07:03:44.715Z","source":"https://celestrak.org/NORAD/elements/gp.php?NAME=ASTROCAST&FORMAT=JSON","constellation":"astrocast","records":[{"OBJECT_NAME":"ASTROCAST 0.1","OBJECT_ID":"2018-099AS","EPOCH":"2026-07-06T19:40:41.120832","CLASSIFICATION_TYPE":"U","MEAN_MOTION":15.50999199,"ECCENTRICITY":0.00056305,"INCLINATION":97.4362,"RA_OF_ASC_NODE":266.947,"ARG_OF_PERICENTER":150.9433,"MEAN_ANOMALY":209.2133,"EPHEMERIS_TYPE":0,"NORAD_CAT_ID":43798,"ELEMENT_SET_NO":999,"REV_AT_EPOCH":41747,"BSTAR":0.00054110478,"MEAN_MOTION_DOT":0.00031413,"MEAN_MOTION_DDOT":0},{"OBJECT_NAME":"ASTROCAST-0402","OBJECT_ID":"2023-001DE","EPOCH":"2026-07-07T17:26:55.887072","CLASSIFICATION_TYPE":"U","MEAN_MOTION":15.28911088,"ECCENTRICITY":0.0005914,"INCLINATION":97.5573,"RA_OF_ASC_NODE":282.2372,"ARG_OF_PERICENTER":154.5704,"MEAN_ANOMALY":205.5827,"EPHEMERIS_TYPE":0,"NORAD_CAT_ID":55109,"ELEMENT_SET_NO":999,"REV_AT_EPOCH":14767,"BSTAR":0.00023659,"MEAN_MOTION_DOT":0.0000657,"MEAN_MOTION_DDOT":0},{"OBJECT_NAME":"ASTROCAST-0401","OBJECT_ID":"2023-001DF","EPOCH":"2026-07-07T17:45:51.916608","CLASSIFICATION_TYPE":"U","MEAN_MOTION":15.28393251,"ECCENTRICITY":0.0009433,"INCLINATION":97.5554,"RA_OF_ASC_NODE":282.0634,"ARG_OF_PERICENTER":130.2569,"MEAN_ANOMALY":229.9496,"EPHEMERIS_TYPE":0,"NORAD_CAT_ID":55110,"ELEMENT_SET_NO":999,"REV_AT_EPOCH":19434,"BSTAR":0.00032942,"MEAN_MOTION_DOT":0.00009043,"MEAN_MOTION_DDOT":0},{"OBJECT_NAME":"ASTROCAST-0403","OBJECT_ID":"2023-001DG","EPOCH":"2026-07-07T18:36:16.894656","CLASSIFICATION_TYPE":"U","MEAN_MOTION":15.32124196,"ECCENTRICITY":0.0004126,"INCLINATION":97.5615,"RA_OF_ASC_NODE":283.3704,"ARG_OF_PERICENTER":242.083,"MEAN_ANOMALY":117.9993,"EPHEMERIS_TYPE":0,"NORAD_CAT_ID":55111,"ELEMENT_SET_NO":999,"REV_AT_EPOCH":14771,"BSTAR":0.00042936,"MEAN_MOTION_DOT":0.00013248,"MEAN_MOTION_DDOT":0},{"OBJECT_NAME":"ASTROCAST-0404","OBJECT_ID":"2023-001DH","EPOCH":"2026-07-07T11:57:08.756064","CLASSIFICATION_TYPE":"U","MEAN_MOTION":15.28745041,"ECCENTRICITY":0.00048045,"INCLINATION":97.5662,"RA_OF_ASC_NODE":282.9311,"ARG_OF_PERICENTER":278.5773,"MEAN_ANOMALY":81.4922,"EPHEMERIS_TYPE":0,"NORAD_CAT_ID":55112,"ELEMENT_SET_NO":999,"REV_AT_EPOCH":14763,"BSTAR":0.00019628646,"MEAN_MOTION_DOT":0.00005408,"MEAN_MOTION_DDOT":0}]}
